FOX-1D (AO-92)          
1 43137U 18004AC  23274.75057411  .00088310  00000+0  12372-2 0  9995
2 43137  97.3174 355.7388 0004320 114.6997 245.4708 15.56473337318822
DIWATA-2B               
1 43678U 18084H   23275.51085381  .00002841  00000+0  27302-3 0  9990
2 43678  98.0396  61.7710 0009790 159.2692 200.8926 14.93851149268284
ES'HAIL 2               
1 43700U 18090A   23274.87599590  .00000135  00000+0  00000+0 0  9999
2 43700   0.0178 123.7672 0001371  86.3127 141.4562  1.00275089 17754
FOX-1CLIFF (AO-95)      
1 43770U 18099N   23274.72757460  .00009237  00000+0  72309-3 0  9998
2 43770  97.5758 333.4817 0015192 151.4287 208.7773 15.01152665263589
ITASAT 1                
1 43786U 18099AE  23275.16119022  .00007297  00000+0  58078-3 0  9991
2 43786  97.5579 334.8441 0019350 131.9213 228.3665 15.00534011263684
JY1SAT (JO-97)          
1 43803U 18099AX  23274.67576061  .00009043  00000+0  68905-3 0  9997
2 43803  97.5582 334.5954 0012930 103.8253 256.4412 15.02212799263672
UWE-4                   
1 43880U 18111E   23274.68567691  .00011352  00000+0  82913-3 0  9998
2 43880  97.6229 178.2520 0018329 166.9444 193.2260 15.03688739260362
NEXUS (FO-99)           
1 43937U 19003F   23275.01842447  .00217998  00000+0  15036-2 0  9990
2 43937  97.0710 302.1161 0006876 210.9668 149.1192 15.73924334262711
JAISAT-1                
1 44419U 19038F   23274.88140833  .00045922  00000+0  12831-2 0  9994
2 44419  97.6815 260.6491 0009255 285.7473  74.2749 15.36517629234888
DUCHIFAT-3              
1 44854U 19089C   23275.06726321  .00014615  00000+0  92722-3 0  9999
2 44854  36.9602 171.6185 0005523 121.4401 238.6884 15.08276542208964
TIANYAN 01              
1 44881U 19093C   23275.46678476  .00001854  00000+0  23527-3 0  9993
2 44881  97.8543 352.0708 0016047  88.6386 271.6666 14.82812836204693
RS-44 & BREEZE-KM R/B   
1 44909U 19096E   23274.70555010  .00000008  00000+0 -55605-5 0  9996
2 44909  82.5162 277.1635 0216393 298.0954  59.8423 12.79722990175781
BY70-2                  
1 45857U 20042B   23275.46791361  .00037588  00000+0  33877-2 0  9993
2 45857  97.9196 356.0552 0007467  15.6137 344.5313 14.95427354175544
SALSAT                  
1 46495U 20068K   23275.39772760  .00008395  00000+0  53497-3 0  9999
2 46495  97.7808 224.6661 0017019 112.4839 247.8193 15.08879460165231
RADFXSAT-2 (AO-109)     
1 47311U 21002C   23274.58144768  .00052728  00000+0  10666-2 0  9996
2 47311  60.6802   7.6198 0016618   0.0147   0.0949 15.45950388150696
UVSQ-SAT                
1 47438U 21006AB  23274.71068503  .00027665  00000+0  10057-2 0  9993
2 47438  97.3713 330.4785 0010183  70.6337 289.6003 15.28183916148899
LEDSAT                  
1 49069U 21073D   23275.17657754  .00015149  00000+0  77913-3 0  9991
2 49069  97.4721 344.3288 0024402 109.1973 251.1904 15.16280121117103
XW-3 (CAS-9)            
1 50466U 21131B   23275.45900925  .00001030  00000+0  34734-3 0  9999
2 50466  98.5466 356.6532 0004540 165.7305 194.4011 14.39082510 92780
TEVEL-3                 
1 50988U 22002E   23275.49137753  .00037097  00000+0  12677-2 0  9994
2 50988  97.4212 342.0150 0006644 204.7499 155.3423 15.30172809 95145
TEVEL-8                 
1 50989U 22002F   23275.44973007  .00037692  00000+0  12910-2 0  9991
2 50989  97.4233 342.0439 0006630 203.6991 156.3945 15.30094495 95132
TEVEL-5                 
1 50998U 22002Q   23275.43644935  .00040519  00000+0  13386-2 0  9995
2 50998  97.4210 342.4869 0007732 200.0299 160.0640 15.31240677 95178
TEVEL-6                 
1 50999U 22002R   23275.43510748  .00040056  00000+0  13237-2 0  9991
2 50999  97.4208 342.4776 0007749 199.8804 160.2136 15.31233582 95177
TEVEL-1                 
1 51013U 22002AF  23275.43945940  .00037908  00000+0  12976-2 0  9996
2 51013  97.4207 341.8866 0006554 204.3957 155.6974 15.30113399 95137
TEVEL-7                 
1 51062U 22002CG  23275.38365146  .00038316  00000+0  13112-2 0  9995
2 51062  97.4228 341.9486 0006609 203.6316 156.4622 15.30119868 95120
TEVEL-4                 
1 51063U 22002CH  23275.45964855  .00037782  00000+0  12960-2 0  9992
2 51063  97.4226 341.9948 0006640 203.6676 156.4260 15.30045795 95132
TEVEL-2                 
1 51069U 22002CP  23275.42735161  .00037506  00000+0  12814-2 0  9993
2 51069  97.4210 341.9194 0006604 204.6016 155.4910 15.30177102 95132
GREENCUBE               
1 53106U 22080B   23269.37565288 -.00000003  00000+0  00000+0 0  9995
2 53106  70.1406 284.5561 0008473 167.7073 192.3795  6.42557266 28255
CYCLOPS (RS29S)         
1 53373U 22096D   23275.47410044  .00071588  00000+0  13576-2 0  9995
2 53373  97.3995 183.5509 0004293  98.2603 261.9134 15.48067208 64234
MONITOR-1 (RS32S)       
1 53374U 22096E   23275.39937147  .00066913  00000+0  13457-2 0  9999
2 53374  97.3963 183.1120 0004802 100.5371 259.6420 15.46379756 64201
KUZBASS-300 (RS34S)     
1 53375U 22096F   23275.47578206  .00046928  00000+0  10767-2 0  9991
2 53375  97.4009 182.4932 0004164  98.7914 261.3805 15.42574479 64166
UTMN (RS23S)            
1 53376U 22096G   23275.51727329  .00052321  00000+0  11640-2 0  9994
2 53376  97.4001 182.7288 0004042  98.8803 261.2902 15.43470545 64188
MIET-AIS (RS28S)        
1 53377U 22096H   23275.40537891  .00047041  00000+0  11191-2 0  9990
2 53377  97.4021 182.3032 0004018  96.5663 263.6041 15.41484772 64147
KAI-1 (RS26S)           
1 53378U 22096J   23275.43954057  .00036964  00000+0  94912-3 0  9996
2 53378  97.4039 181.8393 0003756  93.8661 266.3014 15.39216033 64114
ISOI (RS19S)            
1 53381U 22096M   23275.41957008  .00042677  00000+0  98362-3 0  9998
2 53381  97.4016 182.7093 0005151  65.5061 294.6723 15.42455729 64179
CUBESX-HSE-2 (RS21S)    
1 53383U 22096P   23275.41003811  .00050981  00000+0  11306-2 0  9993
2 53383  97.4007 182.8852 0005605  65.8943 294.2891 15.43563786 64188
SIREN (RS30S)           
1 53384U 22096Q   23275.51285424  .00043279  00000+0  10462-2 0  9991
2 53384  97.4025 182.4780 0005438  62.2561 297.9236 15.41013531 64163
GEOSCAN-EDELVEIS (RS20S)
1 53385U 22096R   23275.38917269  .00077091  00000+0  13592-2 0  9992
2 53385  97.3982 184.2341 0005516  58.9004 301.2788 15.50126409 64305
VIZARD (RS33S)          
1 53386U 22096S   23275.43344773  .00144382  00000+0  18320-2 0  9995
2 53386  97.3977 185.8631 0006332  72.7262 287.4686 15.58923829 64408
CAS-5A (FO-118)         
1 54684U 22167C   23275.44763641  .00020795  00000+0  10534-2 0  9996
2 54684  97.5774  52.5848 0012249 328.1105  31.9385 15.16944870 44921
STRATOSAT-TK 1 (RS52S)  
1 57167U 23091B   23275.42108937  .00013881  00000+0  98351-3 0  9993
2 57167  97.6530 325.2011 0016419 282.8580  77.0811 15.04807312 14556
UMKA 1 (RS40S)          
1 57172U 23091G   23275.43329719  .00006982  00000+0  50597-3 0  9997
2 57172  97.6517 325.1853 0016859 282.3583  77.5756 15.04155342 14558
CUBESX-HSE 3 (RS42S)    
1 57178U 23091N   23275.50445989  .00008611  00000+0  62131-3 0  9997
2 57178  97.6549 325.2941 0017769 276.5467  83.3736 15.04236184 14563
MONITOR-4 (RS57S)       
1 57182U 23091S   23275.37649124  .00007309  00000+0  52986-3 0  9994
2 57182  97.6538 325.1427 0017825 278.0420  81.8783 15.04112895 14548
MONITOR-2 (RS39S)       
1 57184U 23091U   23275.39228847  .00004801  00000+0  34450-3 0  9993
2 57184  97.6564 325.2778 0013111 271.3862  88.5862 15.04738397 14553
SVYATOBOR 1 (RS60S)     
1 57187U 23091X   23275.44114662  .00007530  00000+0  53172-3 0  9995
2 57187  97.6549 325.3672 0013433 269.1512  90.8175 15.05144538 14560
VIZARD-METEO (RS38S)    
1 57189U 23091Z   23275.41702432  .00009375  00000+0  65234-3 0  9993
2 57189  97.6559 325.3889 0012342 267.3606  92.6207 15.05638251 14561
NANOZOND 1 (RS49S)      
1 57190U 23091AA  23275.39658472  .00011639  00000+0  79736-3 0  9994
2 57190  97.6533 325.3798 0010580 273.8096  86.1921 15.06173086 14563
POLYTECH-UNIVERSE 3 (R*)
1 57191U 23091AB  23275.43958236  .00005798  00000+0  41640-3 0  9993
2 57191  97.6511 325.1766 0019584 289.4381  70.4729 15.04528858 14556
UTMN 2 (RS27S)          
1 57203U 23091AP  23275.42328429  .00009214  00000+0  64358-3 0  9999
2 57203  97.6555 325.3802 0012797 267.6043  92.3718 15.05496405 14568
ARCCUBE 1 (RS25S)       
1 57205U 23091AR  23275.39636520  .00013235  00000+0  90359-3 0  9999
2 57205  97.6516 325.3592 0010935 275.9661  84.0320 15.06267936 14566
KUZGTU 1 (RS47S)        
1 57217U 23091AV  23275.50223023  .00008699  00000+0  62737-3 0  9992
2 57217  97.6524 325.2660 0017654 277.8966  82.0256 15.04251707 14560
